[{"OBJECT_NAME":"GOES 19","OBJECT_ID":"2024-119A","EPOCH":"2026-03-03T18:50:55.834944","MEAN_MOTION":1.00272073,"ECCENTRICITY":9.71e-5,"INCLINATION":0.0185,"RA_OF_ASC_NODE":323.3882,"ARG_OF_PERICENTER":55.1468,"MEAN_ANOMALY":350.537,"EPHEMERIS_TYPE":0,"CLASSIFICATION_TYPE":"U","NORAD_CAT_ID":60133,"ELEMENT_SET_NO":999,"REV_AT_EPOCH":590,"BSTAR":0,"MEAN_MOTION_DOT":-2.62e-6,"MEAN_MOTION_DDOT":0},{"OBJECT_NAME":"FENGYUN 3H","OBJECT_ID":"2025-219A","EPOCH":"2026-03-03T20:03:14.110272","MEAN_MOTION":14.19930706,"ECCENTRICITY":0.00014,"INCLINATION":98.6679,"RA_OF_ASC_NODE":5.7051,"ARG_OF_PERICENTER":65.6877,"MEAN_ANOMALY":294.4446,"EPHEMERIS_TYPE":0,"CLASSIFICATION_TYPE":"U","NORAD_CAT_ID":65815,"ELEMENT_SET_NO":999,"REV_AT_EPOCH":2243,"BSTAR":6.7342e-5,"MEAN_MOTION_DOT":1.0e-6,"MEAN_MOTION_DDOT":0}]
