GOES 19                 
1 60133U 24119A   26062.78536846 -.00000262  00000+0  00000+0 0  9992
2 60133   0.0185 323.3882 0000971  55.1468 350.5370  1.00272073  5903
FENGYUN 3H              
1 65815U 25219A   26062.83557998  .00000100  00000+0  67342-4 0  9990
2 65815  98.6679   5.7051 0001400  65.6877 294.4446 14.19930706 22438
